#dP2022  3 25  0  0  0.00000000      96 __u+U ITR14 FIT  IAC
## 2202 432000.00000000   900.00000000 59663 0.0000000000000
+  126   C01C02C03C04C05C06C07C08C09C10C11C12C13C14C16C19C20
+        C21C22C23C24C25C26C27C28C29C30C32C33C34C35C36C37C38
+        C39C40C41C42C43C44C45C46C60E01E02E03E04E05E07E08E10
+        E11E12E13E14E15E18E19E21E24E25E26E27E30E31E33E34E36
+        G01G02G03G04G05G06G07G08G09G10G11G12G13G14G15G16G17
+        G18G19G20G21G22G23G24G25G26G27G28G29G30G31G32J01J02
+        J03J07R01R02R03R04R05R06R07R08R09R10R12R13R14R15R17
+        R18R19R20R21R22R23R24  0  0  0  0  0  0  0  0  0  0
++        15 14 14 15 15  9  9  9  9  9  9  8  9  9  9  7  7
++         7  7  7  7  7  7  7  7  7  7  7  7  7  7  8  7  8
++         8  8  7  7  7  7  7  7 15  4  4  4  5  4  5  4  5
++         5  4  4  5  4  5  4  4  4  4  4  4  5  4  4  4  4
++         4  4  3  3  4  3  4  4  3  4  4  4  4  4  4  4  4
++         4  4  0  4  4  4  4  3  4  4  5  4  4  4  4  0  8
++         8 15  7  6  6  6  6 13  6  6  6 13  6  7  6  6  6
++         6  7  7  6  7 13  6  0  0  0  0  0  0  0  0  0  0
%c M  cc GPS ccc cccc cccc cccc cccc ccccc ccccc ccccc ccccc
%c cc cc ccc ccc cccc cccc cccc cccc ccccc ccccc ccccc ccccc
%f  0.0000000  0.000000000  0.00000000000  0.000000000000000
%f  0.0000000  0.000000000  0.00000000000  0.000000000000000
%i    0    0    0    0      0      0      0      0         0
%i    0    0    0    0      0      0      0      0         0
/* INFORMATION & ANALYSIS CENTER (IAC)            RAPID DATA
/* S/V CLOCKS ARE ALIGNED TO GNSS TIME                      
/* G:C1WC2W R:C1PC2P E:C1XC5X C:C2IC6I J:C1CC2S             
/* PCV:IGS14_2196 OL/AL:FES2004  NONE     YN ORB:CoN CLK:CoN
*  2022 03 25 21 45  0.00000000
PC01 -34339.395882  24467.368864   -314.539694     11.289173
PC02   4402.863903  41973.252745    686.579488    191.753833
PC03 -14800.532229  39520.591292   -251.892435   -562.620407
PC04 -39623.440609  14397.145024   -522.643863   -245.373675
PC05  21861.307851  36118.036947    615.731707 999999.999999
PC06  -5272.889585  24696.265967  33795.844865   -324.731678
PC07 -18754.670971  33609.288177 -17379.091025     89.427226
PC08  -5279.166181  39165.558082 -14476.316403    219.477545
PC09   6850.300500  28958.280596  30395.639933   -637.223839
PC10 -11702.248199  33663.855318 -22621.743174    138.042494
PC11 -25338.993178 -11596.726552  -1647.411462    251.616294
PC12 -14829.343349 -18289.754597  15016.110040   -633.462887
PC13    889.815108  41661.648233  -5362.501406    -79.342235
PC14 -20232.657991  -1967.448766 -19116.411379    452.772305
PC16  -6841.849226  23506.045266  34505.996827    108.629305
PC19  24124.860871  -6425.721022  12480.316771    883.603967
PC20  14344.698733   8690.934510  22319.183282   -856.840064
PC21   4701.623931 -19520.863885 -19347.090559   -963.300452
PC22  20335.804340 -18411.504638  -5033.565978   -962.808173
PC23 -10925.800802  19003.448556  17265.360957   -939.160652
PC24 -11868.443136 -20935.673712  14135.278094   -948.590395
PC25 -16302.201768     85.481003  22640.099569   -760.572066
PC26  -2077.237057 -27825.014227  -1160.404028    761.006664
PC27   5655.663702  18353.172255 -20274.464171    697.608171
PC28 -13721.539825  10251.238632 -22029.938975     47.694298
PC29  25596.072018   3222.300689  10641.918609    532.525453
PC30  22112.508500  15364.912499  -7390.833970    495.805286
PC32  -4585.474217  19604.917443  19349.293297   -966.342436
PC33 -24091.818404   6543.652423 -12476.857895   -970.875400
PC34 -22630.135750 -14969.793575   6446.656200   -440.226963
PC35  14239.744305 -10212.869056  21717.354302    198.779722
PC36  16317.933222    858.651698 -22602.688444   -958.015803
PC37    670.791452  27795.484312   2248.448425   -934.637274
PC38  -9804.826805  35696.085497 -20013.176240    220.522738
PC39 -13303.868353  20392.591756  34428.941281     34.898855
PC40 -25691.927607  28977.133394 -16880.248900    255.345822
PC41 -20493.269011  18369.361952   4678.171741   -964.399648
PC42 -13564.656780  -9425.512231 -22445.322606   -942.061206
PC43 -25751.389245  -3751.026040 -10048.619510   -933.892708
PC44  -5990.865655 -18193.795256  20268.590543    606.586517
PC45  10689.801766 -19243.384735 -17168.501849    714.232011
PC46  12471.728161  19714.933940 -15288.043473   -237.036991
PC60   7309.244800  41518.062953  -1367.778932     -0.463302
PE01  12601.879240 -26787.614948   -388.037859   -603.790688
PE02 -12488.951263  26822.780475    216.533069    288.604669
PE03 -12814.386841  16258.980556  21163.096166   -541.166144
PE04  -9408.966383 -15606.179814 -23315.572227   -992.392221
PE05 -27921.317412   7358.740775   6520.210102   -196.972124
PE07  26572.071543   5709.552042  11726.700851   -651.991939
PE08   9838.937712  15337.645824  23329.407513   -501.273309
PE10 -18873.747156 -22612.381378  -2925.620520   -502.679870
PE11 -21597.737556 -15744.226191 -12704.468859   4135.753495
PE12 -13137.000929 -25633.777277   6762.418009   4695.456366
PE13  21548.736343  16286.529217  12127.640610    427.555092
PE14 -30273.397674   1030.747016  -4537.469647  -1791.008297
PE15  13138.594049  25614.107442  -6912.021016    755.608660
PE18  24505.129292   7191.679603  -5475.475882  -1641.466048
PE19  15366.670371 -15484.508281 -19999.199936  -1922.203883
PE21  19328.717384 -14885.316503 -16775.094946   -724.648384
PE24 -14803.961364  -7737.685553  24419.507943   -525.243538
PE25 -19348.561545  14628.015870  16958.949708   -568.082080
PE26  16859.577736  -3591.857911  24068.278363   -954.483576
PE27  15427.954062   6283.333750 -24470.039314   -261.389286
PE30   1627.466523  24185.853187 -16987.598749   -377.922524
PE31  -2474.388649 -23598.225757  17704.232980   -494.075821
PE33   3003.998923 -19786.250459  21808.860166   -458.227890
PE34  -2783.809541  19938.064109 -21704.490930   -508.664784
PE36 -17239.504431   2556.846674 -23918.650379   -350.426922
PG01  17349.822751   6139.876714  18997.629251    400.265738
PG02 -14966.025309 -21768.001515  -1191.099519   -652.635946
PG03  18133.782059  -5362.618667  18500.864441   -179.407904
PG04  26555.370151    665.766803  -1499.294851   -181.009598
PG05 -11307.472558 -10788.494485 -21621.530103    -75.967532
PG06  -3472.446948 -23421.894696  12019.397130    243.747276
PG07  11112.391367 -11027.410604 -21007.666311    317.756737
PG08  24489.082160   6293.350154  -8734.835460    -61.292757
PG09  22539.021416  -8001.233327 -11649.865101   -347.720503
PG10 -10800.775969  23664.236211   4672.104853   -358.122061
PG11 -12863.998230 -23095.471941  -2654.214586    -53.661409
PG12 -17319.047527    775.927880  19815.662536   -190.401267
PG13 -18262.437883 -13090.981802 -14442.617695    282.976878
PG14  12459.830135 -23122.602761   3647.088778    -97.216822
PG15 -25183.860760  -3903.972473  -8445.805117    -73.994883
PG16   6819.736287  14954.718791 -21034.424814   -484.742084
PG17   8522.858652 -13724.478576  21524.315712    591.975214
PG18 -10907.706035  11020.473421 -21555.034602    211.351408
PG19     70.973665 -14802.097420  21801.162873    135.793486
PG20      0.000000      0.000000      0.000000 999999.999999
PG21  19476.627547  14531.617682  12121.670529    159.799621
PG22   3390.208491  15595.548786  21662.742163    233.131342
PG23 -16583.941639  19631.038645  -6518.200855     -9.819447
PG24 -19496.665225  -9129.524888  15518.075285    264.424355
PG25 -18583.809036  14222.466041  12006.214561    303.247211
PG26  -1295.138790  22813.272755 -13361.609171    193.650060
PG27  15900.386272  12479.933776 -17639.819330    165.398485
PG28   6671.495110 -22934.348607  12372.561580    374.899399
PG29 -23951.933439   4617.498675 -10630.927272   -495.601918
PG30   5020.017337 -18882.135599 -17809.622408   -520.596077
PG31   4808.827622  24085.620806   9359.956358   -170.547366
PG32  -4305.610638  15061.525105  21566.642096    -91.979914
PJ01      0.000000      0.000000      0.000000 999999.999999
PJ02 -31537.565846  25965.172605  15314.465599     -2.230653
PJ03 -25724.005228  16728.249182 -24328.818851     -1.179592
PJ07 -25392.647917  33664.743009     50.205857      0.014310
PR01   8103.893662 -14278.460170 -19510.604345      7.376420
PR02 -11658.688571  -6072.765679 -21799.803970    513.587911
PR03 -22766.462771   4899.870861 -10295.937832     53.733037
PR04 -20996.117164  12817.198349   6765.286857    133.591464
PR05  -7684.255051  13683.956917  20117.302276     90.005579
PR06  12889.601626   5215.013857  21385.871207    -39.561038
PR07  23018.587860  -5272.661431   9747.119292     33.084870
PR08  20950.364554 -12901.197508  -6718.156211    -64.245511
PR09   6951.499213  17820.151588 -16901.652569     46.276976
PR10  10948.038995   1376.401404 -23009.891958    -80.944605
PR12   1934.833161 -25429.235727    957.724485     17.593843
PR13  -6212.725403 -18715.306475  16162.145683    -19.948906
PR14 -11165.008712     85.527539  22940.788097     75.796742
PR15  -9294.839849  17816.509578  15724.480544     97.297272
PR17 -20824.382822  -8295.561698 -12195.047670    512.422130
PR18 -11475.637046   4009.047983 -22401.422059    111.472225
PR19   2392.299346  13832.585065 -21299.309566   -182.942162
PR20  17884.665507  17265.584603  -5826.508394    -67.401210
PR21  20335.340846   7418.568556  13479.574980   -288.185113
PR22  10889.680341  -4449.843406  22634.109252   -172.849109
PR23  -7997.143077 -16052.182609  18126.305018    -34.811208
PR24 -18518.452693 -16786.079328   5127.824430     86.070894
EOF
